#dP2021 10  3  0  0  0.00000000      97 __u+U IGS14 FIT  IAC
## 2178      0.00000000   900.00000000 59490 0.0000000000000
+  123   C01C02C03C04C05C06C07C08C09C10C11C12C13C14C16C19C20
+        C21C22C23C24C25C26C27C28C29C30C32C33C34C35C36C37C38
+        C39C40C41C42C43C44C45C46C60E01E02E03E04E05E07E08E09
+        E11E12E13E14E15E18E19E21E24E25E26E27E30E31E33E36G01
+        G02G03G04G05G06G07G08G09G10G12G13G14G15G16G17G18G19
+        G20G21G22G23G24G25G26G27G28G29G30G31G32J01J02J03J07
+        R01R02R03R04R05R07R08R09R11R12R13R14R15R16R17R18R19
+        R20R21R22R24  0  0  0  0  0  0  0  0  0  0  0  0  0
++         0  0  0  0  0  0  0  0  0  0  0  0  0  0  0  0  0
++         0  0  0  0  0  0  0  0  0  0  0  0  0  0  0  0  0
++         0  0  0  0  0  0  0  0  0  0  0  0  0  0  0  0  0
++         0  0  0  0  0  0  0  0  0  0  0  0  0  0  0  0  0
++         0  0  0  0  0  0  0  0  0  0  0  0  0  0  0  0  0
++         0  0  0  0  0  0  0  0  0  0  0  0  0  0  0  0  0
++         0  0  0  0  0  0  0  0  0  0  0  0  0  0  0  0  0
++         0  0  0  0  0  0  0  0  0  0  0  0  0  0  0  0  0
%c M  cc GPS ccc cccc cccc cccc cccc ccccc ccccc ccccc ccccc
%c cc cc ccc ccc cccc cccc cccc cccc ccccc ccccc ccccc ccccc
%f  1.2500000  1.025000000  0.00000000000  0.000000000000000
%f  0.0000000  0.000000000  0.00000000000  0.000000000000000
%i    0    0    0    0      0      0      0      0         0
%i    0    0    0    0      0      0      0      0         0
/* INFORMATION & ANALYSIS CENTER (IAC)            FINAL DATA
/* S/V CLOCKS ARE ALIGNED TO GNSS TIME                      
/* G:C1WC2W R:C1PC2P E:C1XC5X C:C2IC6I J:C1CC2S             
/* PCV:IGS14_2163 OL/AL:FES2004  NONE     YN ORB:CoN CLK:CoN
*  2021 10 03 22 45  0.00000000
PC01 -34291.233731  24514.267176    216.512600   -580.087121
PC02   4267.595240  41935.968054   -120.922561    280.924458
PC03 -14770.100009  39456.353587    804.244746 999999.999999
PC04 -39573.180445  14496.190401    474.037689 999999.999999
PC05  21898.690149  36016.983576   -408.834629    255.483496
PC06 -11309.089076  23209.443028 -33376.080021    282.556362
PC07 -15935.160625  38562.370661   5539.535557   -173.770317
PC08   1105.641969  33921.056697  25112.566856   -899.163955
PC09  -1225.571988  24322.762746 -34088.548885   -155.863417
PC10  -9175.887304  38956.943991  12736.069725      4.318277
PC11  21022.360609  -7963.710117 -16502.754628    610.736286
PC12  27718.108291   3358.181671   -326.499607    745.751325
PC13   6475.259452  37204.043325  19146.318356    430.246643
PC14  19458.789067 -18990.171407  -6395.918904    607.020367
PC16 -15034.695228  21816.129218 -32712.424354   -780.026568
PC19 -14652.768610  23539.938756  -3061.454245    953.561523
PC20 -20862.778345  12800.795760  13382.881163   -796.073110
PC21  14926.197628   6228.918950 -22735.672625   -931.698356
PC22    286.642171  21002.940023 -18367.863966   -955.301179
PC23  -8626.934111 -26321.689487   3381.748505   -966.532579
PC24  16638.082640  -1824.508412  22332.125259   -969.599656
PC25   4615.919951 -20812.521188  17994.686319   -845.423323
PC26  18240.654604  15865.005349  13966.809053    841.182411
PC27 -24980.291083  -9140.514736  -8471.107994    607.428951
PC28  -9031.913513 -15861.060501 -21102.340060    -19.087252
PC29 -11671.869986  13738.438675  21294.651157    455.648088
PC30 -26340.926468   3525.411774   8533.671437    482.443478
PC32 -14932.360584  -6216.453352  22745.232130   -957.728626
PC33  14578.348566 -23617.121794   2981.258877   -967.834435
PC34  25988.078175  -4052.743367  -9309.826401   -567.908719
PC35   9092.022215  15662.669093  21218.711802    -62.959521
PC36  -5371.679407  20430.055255 -18205.857673   -771.235268
PC37 -17638.718970 -17098.710843 -13194.333427   -870.583949
PC38  -6146.358807  29857.034859  29206.445587    179.773648
PC39 -20855.360645  20968.977731 -30118.686768     33.467099
PC40 -22308.244509  35517.115429   3362.632119    205.194967
PC41    -73.573273 -21226.837608  18153.259481   -927.791341
PC42  20882.679129 -12097.088544 -13989.682823   -968.745853
PC43  12349.036683 -13592.042714 -21013.797364   -943.277557
PC44  25159.849712   8422.844407   8598.459615    417.788434
PC45   8834.411334  26291.011730  -3182.929625    564.368567
PC46 -16056.671332   3184.781252 -22585.209734     56.226978
PC60   7308.070103  41491.873108   1674.480802     -0.702911
PE01 -14611.729745  16949.499721 -19366.292444   -487.938692
PE02  14575.663759 -17066.366791  19299.383385    251.067590
PE03  25210.182987 -15014.083757   3950.370984   -481.317493
PE04  -9909.553255  19935.325506 -19508.317129   -870.142310
PE05  25953.563645  -1184.437057 -14190.885359   -244.511307
PE07 -11568.920058 -13169.957084  23849.615554   -592.234107
PE08   9494.537895 -19853.588683  19797.050719   5927.457705
PE09  11788.430740  12860.426677 -23917.736513   5510.371466
PE11  19500.342232  20373.101307   8978.610518   5326.093716
PE12    884.666961  18691.015932  22931.987442   4978.460829
PE13 -19210.486192 -20419.413198  -9484.565980    422.201148
PE14  25516.254886   2164.959928   9228.239318  -1592.541306
PE15   -954.360888 -18616.083022 -22987.221872    788.790817
PE18 -19139.915483 -12310.916736 -19222.850510  -1748.685768
PE19 -26208.451286  13658.872783  -1673.282232    393.291134
PE21 -16254.717073  -3983.039749 -24406.222525   -691.565134
PE24   7948.309792  24395.723382  14775.797490  -1151.789216
PE25  16228.750396   4252.552993  24401.246543   -548.810376
PE26 -26022.602678  -9497.586036  10411.783565   1271.134399
PE27  -8622.907680 -23632.256889 -15580.665777   -134.343427
PE30   4909.857169 -28976.702314   3466.883995   2569.157971
PE31  -3996.874492  29238.528318  -2303.784471   -486.344697
PE33 -17801.748348   5859.572755  22912.610516   -464.181277
PE36  26096.512638  10208.901174  -9541.107924   -271.077588
PG01 -21501.406277 -12955.272631   8905.033152    549.524642
PG02  11207.461797  20786.080461  12731.267414   -635.652146
PG03 -13765.216503  -6283.025033  21731.598713   -311.850697
PG04 -24112.811821  -1940.433726  11047.573481   -204.005659
PG05   7785.636638  19386.112298 -16473.688245    -56.483140
PG06  -1691.492903  17115.017884  20283.410104     87.064800
PG07 -18372.399232    913.358777 -18961.271595    256.413807
PG08 -16470.671676  -8723.250254 -19053.796756    -38.794438
PG09 -25460.513033   7609.424114    217.282169   -361.605884
PG10  11647.103215 -21964.011455  -8812.415238   -216.374646
PG12  12767.769940   8267.046036  21535.988402   -106.405725
PG13   8486.968205  13588.689339 -21356.224950    194.445172
PG14 -12739.261336  21628.282373  -8597.727631    -11.717644
PG15  17875.110786   7579.020880 -18655.576717   -116.560471
PG16  -2441.374259 -22287.842688 -14119.157793   -401.124548
PG17 -19382.314734  13155.004741  12963.763040    513.967131
PG18  16907.611337  -2762.765759 -20331.744842    314.835406
PG19 -11718.393295  14623.362234  18486.677033     61.185058
PG20   2071.090102  25897.880296  -6180.625148    518.819558
PG21 -21358.705767 -16264.149328   1584.234356    145.884377
PG22 -12119.100298 -14335.223633  19037.780061   -497.936522
PG23  15326.864790 -12517.642885 -17702.465037     49.557835
PG24  22038.517210  14635.458907   3893.585466    247.333916
PG25  15833.272723  -3475.962999  20727.267176    218.616972
PG26   4258.297240 -26029.822198  -1260.639182    141.064026
PG27  -5919.376021 -13866.325119 -22062.957148   -201.484248
PG28  -9582.897419  24830.222140  -1142.518034    489.290065
PG29  26197.837452  -3298.786737   3135.434368   -421.025342
PG30 -10178.793631  11999.228392 -21318.168138   -479.006904
PG31    495.301077 -18446.510003  18825.771134   -143.080847
PG32  15680.617602 -15471.051421  14825.547375     -6.497193
PJ01 -35410.149655  22838.381485   2794.313604    183.426200
PJ02 -20741.036889  29746.134999 -16988.716966     -3.088044
PJ03 -29621.379439  22880.435674  24441.300954     -3.106376
PJ07 -25390.733323  33660.879205    -42.438641     -0.051060
PR01  -5820.407994  -9693.547964  22860.020046     86.189855
PR02 -18731.974218   7001.301703  15909.983614    495.439092
PR03 -18596.484837  17500.522814   -329.852279     44.069364
PR04  -8167.154292  17895.618379 -16225.830581    107.712158
PR05   6765.305884   8465.350894 -23088.130443     80.061157
PR07  18295.762057 -17703.321135   1131.469435    -40.851869
PR08   7951.920852 -17946.722092  16322.367674    -61.303596
PR09  12133.926566   3489.665249  22174.518317     16.431164
PR11  -2791.012711 -24467.072917   6693.920191 999999.999999
PR12 -10396.245330 -20233.680417 -11490.070413    267.137590
PR13 -12000.799820  -4615.177913 -22038.851383    -61.589041
PR14  -6335.602443  14759.059462 -19792.388216     69.507853
PR15   2792.511596  24633.034000  -5977.655776    101.078530
PR16  11308.192455  19223.528307  12484.974912    -22.539836
PR17 -15173.269117   4739.717407  19939.773112    463.638111
PR18   1794.899822  11302.343658  22806.156882     92.560140
PR19  16907.857413  12609.097156  14356.861108   -161.750760
PR20  24215.786827   5999.536725  -5234.401185    -56.934879
PR21  14103.156231  -5248.125817 -20608.181607   -244.047971
PR22  -2928.541884 -11536.799664 -22587.048969   -136.814521
PR24 -24282.886283  -5046.157867   5923.101556     61.220460
EOF
